NORAD_CAT_ID,OBJECT_NAME,OBJECT_TYPE,EPOCH,MEAN_MOTION,ECCENTRICITY,INCLINATION,RA_OF_ASC_NODE,ARG_OF_PERICENTER,MEAN_ANOMALY,BSTAR,MEAN_MOTION_DOT,MEAN_MOTION_DDOT,TLE_LINE0,TLE_LINE1,TLE_LINE2,SEMIMAJOR_AXIS,PERIOD,APOGEE,PERIGEE,DECAYED
49457.0,STARLINK-3132,PAYLOAD,2022-12-23 16:07:45,15.08822412,0.0002355,53.2163,80.5248,30.3975,329.7153,0.00014226,1.975e-05,0.0,0 STARLINK-3132,1 49457U 21104BB  22357.67205641  .00001975  00000-0  14226-3 0  9997,2 49457  53.2163  80.5248 0002355  30.3975 329.7153 15.08822412 62911,6917.934,95.439,541.428,538.17,0.0
49457.0,STARLINK-3132,PAYLOAD,2022-12-23 22:29:16,15.08864011,0.0002152,53.2164,79.3353,26.5139,333.5962,-0.00042256,-7.012e-05,0.0,0 STARLINK-3132,1 49457U 21104BB  22357.93700213 -.00007012  00000-0 -42256-3 0  9995,2 49457  53.2164  79.3353 0002152  26.5139 333.5962 15.08864011 62955,6917.807,95.436,541.161,538.183,0.0
49457.0,STARLINK-3132,PAYLOAD,2022-12-24 17:33:55,15.08837712,0.0002447,53.2165,75.7669,29.253,330.8599,0.00014121,1.96e-05,0.0,0 STARLINK-3132,1 49457U 21104BB  22358.73189170  .00001960  00000-0  14121-3 0  9991,2 49457  53.2165  75.7669 0002447  29.2530 330.8599 15.08837712 63076,6917.887,95.438,541.445,538.06,0.0
49457.0,STARLINK-3132,PAYLOAD,2022-12-25 07:52:23,15.08841923,0.0002424,53.2161,73.0906,30.0865,330.0266,7.959e-05,9.79e-06,0.0,0 STARLINK-3132,1 49457U 21104BB  22359.32805120  .00000979  00000-0  79590-4 0  9998,2 49457  53.2161  73.0906 0002424  30.0865 330.0266 15.08841923 62096,6917.875,95.437,541.4159999999998,538.063,0.0
49457.0,STARLINK-3132,PAYLOAD,2022-12-25 14:13:56,15.08840706,0.0002423,53.2163,71.9009,30.2828,329.8303,7.5238e-05,9.09e-06,0.0,0 STARLINK-3132,1 49457U 21104BB  22359.59301194  .00000909  00000-0  75238-4 0  9997,2 49457  53.2163  71.9009 0002423  30.2828 329.8303 15.08840706 62130,6917.878000000002,95.438,541.419,538.067,0.0
49457.0,STARLINK-3132,PAYLOAD,2022-12-25 22:10:52,15.08830177,0.0002408,53.2165,70.4141,27.9169,332.1951,4.8825e-05,4.89e-06,0.0,0 STARLINK-3132,1 49457U 21104BB  22359.92422008  .00000489  00000-0  48825-4 0  9997,2 49457  53.2165  70.4141 0002408  27.9169 332.1951 15.08830177 63258,6917.91,95.438,541.441,538.11,0.0
49457.0,STARLINK-3132,PAYLOAD,2022-12-26 10:53:56,15.08844852,0.0002354,53.2167,68.035,26.3911,333.7201,9.1096e-05,1.162e-05,0.0,0 STARLINK-3132,1 49457U 21104BB  22360.45413098  .00001162  00000-0  91096-4 0  9993,2 49457  53.2167  68.0350 0002354  26.3911 333.7201 15.08844852 63332,6917.866,95.437,541.359,538.102,0.0
49457.0,STARLINK-3132,PAYLOAD,2022-12-26 14:04:43,15.08844346,0.0002424,53.2166,67.4405,26.0885,334.0229,9.2372e-05,1.182e-05,0.0,0 STARLINK-3132,1 49457U 21104BB  22360.58661118  .00001182  00000-0  92372-4 0  9995,2 49457  53.2166  67.4405 0002424  26.0885 334.0229 15.08844346 62285,6917.8669999999975,95.437,541.409,538.055,0.0
49457.0,STARLINK-3132,PAYLOAD,2022-12-27 04:23:11,15.08847342,0.0002356,53.2165,64.7632,30.8308,329.2822,0.00010088,1.318e-05,0.0,0 STARLINK-3132,1 49457U 21104BB  22361.18276805  .00001318  00000-0  10088-3 0  9991,2 49457  53.2165  64.7632 0002356  30.8308 329.2822 15.08847342 62377,6917.858,95.437,541.3530000000002,538.0930000000002,0.0
49457.0,STARLINK-3132,PAYLOAD,2022-12-27 23:27:47,15.08861833,0.0002574,53.2166,61.1968,29.8635,330.2503,0.00019274,2.782e-05,0.0,0 STARLINK-3132,1 49457U 21104BB  22361.97763167  .00002782  00000-0  19274-3 0  9992,2 49457  53.2166  61.1968 0002574  29.8635 330.2503 15.08861833 63565,6917.814,95.436,541.4590000000002,537.898,0.0
49457.0,STARLINK-3132,PAYLOAD,2022-12-28 13:46:16,15.0884307,0.0002783,53.2159,58.5202,29.8029,330.3121,-2.4198e-05,-6.74e-06,0.0,0 STARLINK-3132,1 49457U 21104BB  22362.57380288 -.00000674  00000-0 -24198-4 0  9990,2 49457  53.2159  58.5202 0002783  29.8029 330.3121 15.08843070 62588,6917.871,95.437,541.661,537.811,0.0
49457.0,STARLINK-3132,PAYLOAD,2022-12-29 10:26:18,15.08827603,0.0002583999999999,53.2157,54.6535,32.309,327.806,-0.00025035,-4.269e-05,0.0,0 STARLINK-3132,1 49457U 21104BB  22363.43493381 -.00004269  00000-0 -25035-3 0  9999,2 49457  53.2157  54.6535 0002584  32.3090 327.8060 15.08827603 63788,6917.918000000002,95.438,541.571,537.996,0.0
49457.0,STARLINK-3132,PAYLOAD,2022-12-29 15:12:28,15.08824124,0.0002587,53.2166,53.7629,26.4438,333.6686,-0.00021202,-3.66e-05,0.0,0 STARLINK-3132,1 49457U 21104BB  22363.63366693 -.00003660  00000-0 -21202-3 0  9992,2 49457  53.2166  53.7629 0002587  26.4438 333.6686 15.08824124 63813,6917.929,95.439,541.5840000000002,538.004,0.0
49457.0,STARLINK-3132,PAYLOAD,2022-12-30 10:17:05,15.08848537,0.0002816999999999,53.217,50.1932,20.5966,339.514,0.00011125,1.483e-05,0.0,0 STARLINK-3132,1 49457U 21104BB  22364.42853071  .00001483  00000-0  11125-3 0  9993,2 49457  53.2170  50.1932 0002817  20.5966 339.5140 15.08848537 63930,6917.854,95.437,541.668,537.771,0.0
49457.0,STARLINK-3132,PAYLOAD,2022-12-31 10:07:52,15.08851011,0.0002743,53.2163,45.7324,26.9985,333.1149,0.00056863,8.776e-05,0.0,0 STARLINK-3132,1 49457U 21104BB  22365.42213275  .00008776  00000-0  56863-3 0  9990,2 49457  53.2163  45.7324 0002743  26.9985 333.1149 15.08851011 64083,6917.847,95.437,541.609,537.814,0.0
49457.0,STARLINK-3132,PAYLOAD,2022-12-31 13:18:38,15.08852461,0.000272,53.2164,45.1379,26.2555,333.8574,0.00048587,7.456e-05,0.0,0 STARLINK-3132,1 49457U 21104BB  22365.55461106  .00007456  00000-0  48587-3 0  9990,2 49457  53.2164  45.1379 0002720  26.2555 333.8574 15.08852461 63032,6917.842,95.437,541.589,537.826,0.0
49457.0,STARLINK-3132,PAYLOAD,2023-01-01 11:34:01,15.08848966,0.0002065,53.2166,40.9749,8.9604,351.1424,1.7800000000000002e-05,-5e-08,0.0,0 STARLINK-3132,1 49457U 21104BB  23001.48196252 -.00000005  00000-0  17800-4 0  9996,2 49457  53.2166  40.9749 0002065   8.9604 351.1424 15.08848966 64248,6917.853,95.437,541.1469999999998,538.289,0.0
49457.0,STARLINK-3132,PAYLOAD,2023-01-01 19:30:57,15.08846021,0.0002611,53.2164,39.488,27.9758,332.1374,-0.00018364,-3.211e-05,0.0,0 STARLINK-3132,1 49457U 21104BB  23001.81316395 -.00003211  00000-0 -18364-3 0  9993,2 49457  53.2164  39.4880 0002611  27.9758 332.1374 15.08846021 63223,6917.861999999999,95.437,541.533,537.9209999999998,0.0
49457.0,STARLINK-3132,PAYLOAD,2023-01-02 09:49:25,15.08842231,0.0002618,53.2167,36.8113,32.3726,327.7427,-0.00015733,-2.792e-05,0.0,0 STARLINK-3132,1 49457U 21104BB  23002.40932534 -.00002792  00000-0 -15733-3 0  9998,2 49457  53.2167  36.8113 0002618  32.3726 327.7427 15.08842231 64384,6917.874,95.437,541.55,537.927,0.0
49457.0,STARLINK-3132,PAYLOAD,2023-01-02 13:00:11,15.08844584,0.0002759,53.2166,36.2167,27.8839,332.2301,-0.00010283,-1.925e-05,0.0,0 STARLINK-3132,1 49457U 21104BB  23002.54180424 -.00001925  00000-0 -10283-3 0  9998,2 49457  53.2166  36.2167 0002759  27.8839 332.2301 15.08844584 63335,6917.866,95.437,541.64,537.823,0.0
49457.0,STARLINK-3132,PAYLOAD,2023-01-02 19:21:44,15.08843453,0.0002713,53.2166,35.027,30.5678,329.5472,1.3837e-05,-6.8e-07,0.0,0 STARLINK-3132,1 49457U 21104BB  23002.80676562 -.00000068  00000-0  13837-4 0  9995,2 49457  53.2166  35.0270 0002713  30.5678 329.5472 15.08843453 63375,6917.87,95.437,541.612,537.8580000000002,0.0
49457.0,STARLINK-3132,PAYLOAD,2023-01-03 01:43:15,15.08861072,0.0002731,53.2165,33.8376,26.9331,333.1803,-0.00072936,-0.00011885,0.0,0 STARLINK-3132,1 49457U 21104BB  23003.07171097 -.00011885  00000-0 -72936-3 0  9992,2 49457  53.2165  33.8376 0002731  26.9331 333.1803 15.08861072 64481,6917.816,95.436,541.57,537.7919999999998,0.0
49457.0,STARLINK-3132,PAYLOAD,2023-01-03 11:15:36,15.08836757,0.0002695,53.2161,32.0539,30.3257,329.7891,0.00026541,3.938e-05,0.0,0 STARLINK-3132,1 49457U 21104BB  23003.46917288  .00003938  00000-0  26541-3 0  9994,2 49457  53.2161  32.0539 0002695  30.3257 329.7891 15.08836757 64541,6917.89,95.438,541.62,537.891,0.0
49457.0,STARLINK-3132,PAYLOAD,2023-01-04 01:34:05,15.08831765,0.0002558,53.2161,29.3774,30.3574,329.7566,0.00011951,1.614e-05,0.0,0 STARLINK-3132,1 49457U 21104BB  23004.06533837  .00001614  00000-0  11951-3 0  9993,2 49457  53.2161  29.3774 0002558  30.3574 329.7566 15.08831765 64634,6917.906,95.438,541.54,538.001,0.0
49457.0,STARLINK-3132,PAYLOAD,2023-01-04 12:41:47,15.08839709,0.0002755,53.2165,27.2966,29.6309,330.4838,0.00021199,3.087e-05,0.0,0 STARLINK-3132,1 49457U 21104BB  23004.52901826  .00003087  00000-0  21199-3 0  9992,2 49457  53.2165  27.2966 0002755  29.6309 330.4838 15.08839709 63630,6917.880999999999,95.438,541.6519999999998,537.84,0.0
49457.0,STARLINK-3132,PAYLOAD,2023-01-04 19:03:19,15.08850327,0.0002686,53.2164,26.107,31.4491,328.6661,0.00031264,4.692e-05,0.0,0 STARLINK-3132,1 49457U 21104BB  23004.79397304  .00004692  00000-0  31264-3 0  9998,2 49457  53.2164  26.1070 0002686  31.4491 328.6661 15.08850327 64744,6917.849,95.437,541.572,537.856,0.0
49457.0,STARLINK-3132,PAYLOAD,2023-01-05 10:57:10,15.08855426,0.0002842,53.2162,23.1336,30.7767,329.3391,0.000401,6.102e-05,0.0,0 STARLINK-3132,1 49457U 21104BB  23005.45637048  .00006102  00000-0  40100-3 0  9991,2 49457  53.2162  23.1336 0002842  30.7767 329.3391 15.08855426 63771,6917.833000000001,95.437,541.664,537.732,0.0
49457.0,STARLINK-3132,PAYLOAD,2023-01-06 10:47:57,15.08827253,0.0002503,53.2171,18.6724,18.2937,341.8145,-0.00042635,-7.065e-05,0.0,0 STARLINK-3132,1 49457U 21104BB  23006.44997190 -.00007065  00000-0 -42635-3 0  9994,2 49457  53.2171  18.6724 0002503  18.2937 341.8145 15.08827253 64993,6917.919,95.438,541.516,538.053,0.0
49457.0,STARLINK-3132,PAYLOAD,2023-01-07 01:06:26,15.08827416,0.0002509,53.2161,15.9966,20.9755,339.134,0.00054169,8.341e-05,0.0,0 STARLINK-3132,1 49457U 21104BB  23007.04614306  .00008341  00000-0  54169-3 0  9997,2 49457  53.2161  15.9966 0002509  20.9755 339.1340 15.08827416 64015,6917.919,95.438,541.52,538.048,0.0
